NORAD_CAT_ID,OBJECT_NAME,OBJECT_TYPE,EPOCH,MEAN_MOTION,ECCENTRICITY,INCLINATION,RA_OF_ASC_NODE,ARG_OF_PERICENTER,MEAN_ANOMALY,BSTAR,MEAN_MOTION_DOT,MEAN_MOTION_DDOT,TLE_LINE0,TLE_LINE1,TLE_LINE2,SEMIMAJOR_AXIS,PERIOD,APOGEE,PERIGEE,DECAYED
51768.0,STARLINK-3622,PAYLOAD,2023-02-21 09:12:40,15.08847135,0.00014,53.2158,292.4573,77.2027,282.9121,2.6557e-05,1.35e-06,0.0,0 STARLINK-3622,1 51768U 22017A   23052.38380612  .00000135  00000-0  26557-4 0  9990,2 51768  53.2158 292.4573 0001400  77.2027 282.9121 15.08847135 56126,6917.859,95.437,540.692,538.755,0.0
51768.0,STARLINK-3622,PAYLOAD,2023-02-21 15:34:13,15.08845832,0.0001384,53.2152,291.2712,75.4668,284.6477,0.00013045,1.789e-05,0.0,0 STARLINK-3622,1 51768U 22017A   23052.64876658  .00001789  00000-0  13045-3 0  9992,2 51768  53.2152 291.2712 0001384  75.4668 284.6477 15.08845832 56174,6917.863,95.437,540.685,538.77,0.0
51768.0,STARLINK-3622,PAYLOAD,2023-02-21 21:55:45,15.08850038,0.0001139,53.2145,290.0807,83.4391,276.6731,0.00017493,2.498e-05,0.0,0 STARLINK-3622,1 51768U 22017A   23052.91372417  .00002498  00000-0  17493-3 0  9995,2 51768  53.2145 290.0807 0001139  83.4391 276.6731 15.08850038 56200,6917.85,95.437,540.503,538.927,0.0
51768.0,STARLINK-3622,PAYLOAD,2023-02-22 02:41:54,15.08858276,0.0001223,53.2146,289.1886,75.4955,284.6172,0.00035842,5.424e-05,0.0,0 STARLINK-3622,1 51768U 22017A   23053.11243983  .00005424  00000-0  35842-3 0  9993,2 51768  53.2146 289.1886 0001223  75.4955 284.6172 15.08858276 56242,6917.825,95.436,540.536,538.843,0.0
51768.0,STARLINK-3622,PAYLOAD,2023-02-22 18:35:47,15.08833166,0.0001127,53.2148,286.2121,87.6652,272.4469,-8.7188e-05,-1.675e-05,0.0,0 STARLINK-3622,1 51768U 22017A   23053.77485010 -.00001675  00000-0 -87188-4 0  9991,2 51768  53.2148 286.2121 0001127  87.6652 272.4469 15.08833166 56342,6917.901,95.438,540.546,538.987,0.0
51768.0,STARLINK-3622,PAYLOAD,2023-02-22 21:46:33,15.08837834,0.0001346,53.2147,285.6203,76.8196,283.2947,3.2609e-05,2.31e-06,0.0,0 STARLINK-3622,1 51768U 22017A   23053.90733084  .00000231  00000-0  32609-4 0  9996,2 51768  53.2147 285.6203 0001346  76.8196 283.2947 15.08837834 56359,6917.887,95.438,540.683,538.821,0.0
51768.0,STARLINK-3622,PAYLOAD,2023-02-23 02:32:42,15.08843234,0.0001317,53.2149,284.7265,79.8516,280.2625,0.00015957,2.253e-05,0.0,0 STARLINK-3622,1 51768U 22017A   23054.10604912  .00002253  00000-0  15957-3 0  9998,2 51768  53.2149 284.7265 0001317  79.8516 280.2625 15.08843234 56391,6917.871,95.437,540.647,538.824,0.0
51768.0,STARLINK-3622,PAYLOAD,2023-02-23 21:37:20,15.08853013,0.0001251,53.2147,281.1576,84.2114,275.9021,0.00046835,7.176e-05,0.0,0 STARLINK-3622,1 51768U 22017A   23054.90092668  .00007176  00000-0  46835-3 0  9993,2 51768  53.2147 281.1576 0001251  84.2114 275.9021 15.08853013 56506,6917.841,95.437,540.571,538.84,0.0
51768.0,STARLINK-3622,PAYLOAD,2023-02-24 11:55:48,15.0884225,0.000108,53.2146,278.4821,91.2019,268.9097,0.00025692,3.804e-05,0.0,0 STARLINK-3622,1 51768U 22017A   23055.49708844  .00003804  00000-0  25692-3 0  9990,2 51768  53.2146 278.4821 0001080  91.2019 268.9097 15.08842250 56594,6917.874,95.437,540.486,538.991,0.0
51768.0,STARLINK-3622,PAYLOAD,2023-02-24 16:41:57,15.08838854,0.0001176,53.2142,277.5891,95.5063,264.6064,-3.132e-05,-7.86e-06,0.0,0 STARLINK-3622,1 51768U 22017A   23055.69580847 -.00000786  00000-0 -31320-4 0  9997,2 51768  53.2142 277.5891 0001176  95.5063 264.6064 15.08838854 56636,6917.884,95.438,540.562,538.935,0.0
51768.0,STARLINK-3622,PAYLOAD,2023-02-24 21:28:07,15.08840947,0.000115,53.2142,276.697,92.7117,267.4006,7.2299e-05,8.63e-06,0.0,0 STARLINK-3622,1 51768U 22017A   23055.89452843  .00000863  00000-0  72299-4 0  9997,2 51768  53.2142 276.6970 0001150  92.7117 267.4006 15.08840947 56650,6917.877,95.437,540.538,538.947,0.0
51768.0,STARLINK-3622,PAYLOAD,2023-02-25 07:00:26,15.08841296,0.0001116,53.2143,274.9127,93.3703,266.7417,7.8785e-05,9.66e-06,0.0,0 STARLINK-3622,1 51768U 22017A   23056.29196839  .00000966  00000-0  78785-4 0  9992,2 51768  53.2143 274.9127 0001116  93.3703 266.7417 15.08841296 56719,6917.876,95.437,540.513,538.969,0.0
51768.0,STARLINK-3622,PAYLOAD,2023-02-25 18:08:08,15.08836003,0.000113,53.214,272.8314,94.2203,265.8919,-7.3056e-05,-1.45e-05,0.0,0 STARLINK-3622,1 51768U 22017A   23056.75565113 -.00001450  00000-0 -73056-4 0  9995,2 51768  53.2140 272.8314 0001130  94.2203 265.8919 15.08836003 56797,6917.893,95.438,540.539,538.976,0.0
51768.0,STARLINK-3622,PAYLOAD,2023-02-25 21:18:54,15.08841395,0.0001081,53.2138,272.2372,92.4827,267.6289,-1.343e-05,-5.02e-06,0.0,0 STARLINK-3622,1 51768U 22017A   23056.88812988 -.00000502  00000-0 -13430-4 0  9991,2 51768  53.2138 272.2372 0001081  92.4827 267.6289 15.08841395 56801,6917.876,95.437,540.489,538.993,0.0
51768.0,STARLINK-3622,PAYLOAD,2023-02-26 02:05:03,15.08845378,0.0001106,53.214,271.3447,92.3436,267.7683,5.1456e-05,5.31e-06,0.0,0 STARLINK-3622,1 51768U 22017A   23057.08684735  .00000531  00000-0  51456-4 0  9991,2 51768  53.2140 271.3447 0001106  92.3436 267.7683 15.08845378 56848,6917.864,95.437,540.494,538.964,0.0
51768.0,STARLINK-3622,PAYLOAD,2023-02-26 21:09:41,15.08847851,0.0001152,53.214,267.7761,96.4029,263.7095,0.0002665,3.957e-05,0.0,0 STARLINK-3622,1 51768U 22017A   23057.88172682  .00003957  00000-0  26650-3 0  9994,2 51768  53.2140 267.7761 0001152  96.4029 263.7095 15.08847851 56953,6917.856,95.437,540.518,538.924,0.0
51768.0,STARLINK-3622,PAYLOAD,2023-02-27 01:55:50,15.0885623,0.000116,53.2144,266.8834,94.587,265.5255,0.00038789,5.893e-05,0.0,0 STARLINK-3622,1 51768U 22017A   23058.08044325  .00005893  00000-0  38789-3 0  9996,2 51768  53.2144 266.8834 0001160  94.5870 265.5255 15.08856230 56982,6917.831,95.437,540.498,538.893,0.0
51768.0,STARLINK-3622,PAYLOAD,2023-02-27 16:14:18,15.08855264,0.000119,53.2142,264.206,95.1494,264.9634,0.00038626,5.867e-05,0.0,0 STARLINK-3622,1 51768U 22017A   23058.67660428  .00005867  00000-0  38626-3 0  9990,2 51768  53.2142 264.2060 0001190  95.1494 264.9634 15.08855264 57087,6917.834,95.437,540.522,538.876,0.0
51768.0,STARLINK-3622,PAYLOAD,2023-02-27 21:00:27,15.0885393,0.0001387,53.2147,263.3156,92.0606,268.0544,0.0003084,4.625e-05,0.0,0 STARLINK-3622,1 51768U 22017A   23058.87532383  .00004625  00000-0  30840-3 0  9991,2 51768  53.2147 263.3156 0001387  92.0606 268.0544 15.08853930 57103,6917.838,95.437,540.662,538.743,0.0
51768.0,STARLINK-3622,PAYLOAD,2023-02-28 12:54:19,15.08819425,9.84e-05,53.2141,260.3413,93.1982,266.9123,-0.00016944,-2.982e-05,0.0,0 STARLINK-3622,1 51768U 22017A   23059.53773121 -.00002982  00000-0 -16944-3 0  9997,2 51768  53.2141 260.3413 0000984  93.1982 266.9123 15.08819425 57203,6917.943,95.439,540.489,539.128,0.0
51768.0,STARLINK-3622,PAYLOAD,2023-02-28 20:51:16,15.08822696,0.0001108,53.2139,258.8551,89.5731,270.5388,0.00064691,0.00010018,0.0,0 STARLINK-3622,1 51768U 22017A   23059.86893610  .00010018  00000-0  64691-3 0  9998,2 51768  53.2139 258.8551 0001108  89.5731 270.5388 15.08822696 57258,6917.933,95.439,540.565,539.032,0.0
51768.0,STARLINK-3622,PAYLOAD,2023-02-28 22:26:39,15.08826039,0.0001182,53.2139,258.5572,90.775,269.3378,0.00051385,7.896e-05,0.0,0 STARLINK-3622,1 51768U 22017A   23059.93517653  .00007896  00000-0  51385-3 0  9992,2 51768  53.2139 258.5572 0001182  90.7750 269.3378 15.08826039 57277,6917.923,95.438,540.606,538.97,0.0
51768.0,STARLINK-3622,PAYLOAD,2023-03-01 19:06:40,15.08847824,0.0001089,53.2133,254.6916,89.4483,270.6633,0.00095666,0.00014973,0.0,0 STARLINK-3622,1 51768U 22017A   23060.79629904  .00014973  00000-0  95666-3 0  9995,2 51768  53.2133 254.6916 0001089  89.4483 270.6633 15.08847824 57391,6917.856,95.437,540.475,538.968,0.0
51768.0,STARLINK-3622,PAYLOAD,2023-03-01 22:17:26,15.0885279,0.0001094,53.2133,254.0968,87.2775,272.8342,0.001002,0.000157,0.0,0 STARLINK-3622,1 51768U 22017A   23060.92877793  .00015700  00000-0  10020-2 0  9990,2 51768  53.2133 254.0968 0001094  87.2775 272.8342 15.08852790 57421,6917.841,95.437,540.463,538.949,0.0
51768.0,STARLINK-3622,PAYLOAD,2023-03-02 18:57:27,15.08843609,0.000133,53.2136,250.2306,85.243,274.8714,0.00036648,5.55e-05,0.0,0 STARLINK-3622,1 51768U 22017A   23061.78989936  .00005550  00000-0  36648-3 0  9995,2 51768  53.2136 250.2306 0001330  85.2430 274.8714 15.08843609 57544,6917.869,95.437,540.654,538.814,0.0
51768.0,STARLINK-3622,PAYLOAD,2023-03-03 06:05:07,15.08893284,7.52e-05,53.2129,248.1476,105.1419,254.9657,0.0013705,0.00021623,0.0,0 STARLINK-3622,1 51768U 22017A   23062.25355825  .00021623  00000-0  13705-2 0  9999,2 51768  53.2129 248.1476 0000752 105.1419 254.9657 15.08893284 57624,6917.718,95.434,540.103,539.062,0.0
51768.0,STARLINK-3622,PAYLOAD,2023-03-03 18:48:13,15.08848238,0.0001609,53.2122,245.7699,94.992,265.1256,-5.2101e-05,-1.117e-05,0.0,0 STARLINK-3622,1 51768U 22017A   23062.78348713 -.00001117  00000-0 -52101-4 0  9998,2 51768  53.2122 245.7699 0001609  94.9920 265.1256 15.08848238 57708,6917.855,95.437,540.833,538.607,0.0
51768.0,STARLINK-3622,PAYLOAD,2023-03-04 12:17:28,15.08834994,0.0001519,53.2145,242.4979,96.1844,263.9321,-0.00012828,-2.329e-05,0.0,0 STARLINK-3622,1 51768U 22017A   23063.51213364 -.00002329  00000-0 -12828-3 0  9990,2 51768  53.2145 242.4979 0001519  96.1844 263.9321 15.08834994 57801,6917.896,95.438,540.812,538.71,0.0
51768.0,STARLINK-3622,PAYLOAD,2023-03-04 13:52:51,15.08834984,0.0001492,53.2133,242.2008,98.0467,262.0694,-0.00012063,-2.207e-05,0.0,0 STARLINK-3622,1 51768U 22017A   23063.57837328 -.00002207  00000-0 -12063-3 0  9994,2 51768  53.2133 242.2008 0001492  98.0467 262.0694 15.08834984 57825,6917.896,95.438,540.793,538.729,0.0
51768.0,STARLINK-3622,PAYLOAD,2023-03-04 20:14:23,15.08844581,0.0001334,53.215,241.0126,90.4084,269.7061,5.5173e-05,5.9e-06,0.0,0 STARLINK-3622,1 51768U 22017A   23063.84333156  .00000590  00000-0  55173-4 0  9995,2 51768  53.2150 241.0126 0001334  90.4084 269.7061 15.08844581 57857,6917.866,95.437,540.654,538.809,0.0
